[{"OBJECT_NAME":"STARLINK-34495","OBJECT_ID":"2025-129S","EPOCH":"2026-03-09T23:46:58.870560","MEAN_MOTION":14.9833839,"ECCENTRICITY":0.000237,"INCLINATION":70.0024,"RA_OF_ASC_NODE":73.6536,"ARG_OF_PERICENTER":262.0247,"MEAN_ANOMALY":98.0643,"EPHEMERIS_TYPE":0,"CLASSIFICATION_TYPE":"U","NORAD_CAT_ID":64428,"ELEMENT_SET_NO":999,"REV_AT_EPOCH":4133,"BSTAR":0.0002657714,"MEAN_MOTION_DOT":3.08e-5,"MEAN_MOTION_DDOT":0},{"OBJECT_NAME":"ICEYE-X57","OBJECT_ID":"2025-135BC","EPOCH":"2026-03-09T22:18:00.647424","MEAN_MOTION":15.00870088,"ECCENTRICITY":0.00021914,"INCLINATION":97.7623,"RA_OF_ASC_NODE":185.2979,"ARG_OF_PERICENTER":76.2741,"MEAN_ANOMALY":283.8727,"EPHEMERIS_TYPE":0,"CLASSIFICATION_TYPE":"U","NORAD_CAT_ID":64578,"ELEMENT_SET_NO":999,"REV_AT_EPOCH":3913,"BSTAR":0.00060837081,"MEAN_MOTION_DOT":7.683e-5,"MEAN_MOTION_DDOT":0}]
